{
    "links": {
        "self": "http://www.neowsapp.com/rest/v1/neo/3634392?api_key=iIulBulltgU6a56xZRHN4H3l9WmuAYTsLGpBGhQ2"
    },
    "id": "3634392",
    "neo_reference_id": "3634392",
    "name": "(2013 GV38)",
    "designation": "2013 GV38",
    "nasa_jpl_url": "http://ssd.jpl.nasa.gov/sbdb.cgi?sstr=3634392",
    "absolute_magnitude_h": 25.4,
    "estimated_diameter": {
        "kilometers": {
            "estimated_diameter_min": 0.022108281,
            "estimated_diameter_max": 0.0494356193
        },
        "meters": {
            "estimated_diameter_min": 22.1082810359,
            "estimated_diameter_max": 49.435619262
        },
        "miles": {
            "estimated_diameter_min": 0.0137374447,
            "estimated_diameter_max": 0.0307178602
        },
        "feet": {
            "estimated_diameter_min": 72.5337327539,
            "estimated_diameter_max": 162.1903570994
        }
    },
    "is_potentially_hazardous_asteroid": false,
    "close_approach_data": [
        {
            "close_approach_date": "2013-04-03",
            "close_approach_date_full": "2013-Apr-03 01:02",
            "epoch_date_close_approach": 1364950920000,
            "relative_velocity": {
                "kilometers_per_second": "12.3825096603",
                "kilometers_per_hour": "44577.034777129",
                "miles_per_hour": "27698.4358591555"
            },
            "miss_distance": {
                "astronomical": "0.0366105575",
                "lunar": "14.2415068675",
                "kilometers": "5476861.421512525",
                "miles": "3403163.880521845"
            },
            "orbiting_body": "Earth"
        }
    ],
    "orbital_data": {
        "orbit_id": "8",
        "orbit_determination_date": "2018-02-10 07:05:30",
        "first_observation_date": "2013-04-07",
        "last_observation_date": "2013-04-18",
        "data_arc_in_days": 11,
        "observations_used": 28,
        "orbit_uncertainty": "8",
        "minimum_orbit_intersection": ".0216856",
        "jupiter_tisserand_invariant": "3.126",
        "epoch_osculation": "2456393.5",
        "eccentricity": ".6374916718889967",
        "semi_major_axis": "2.534043230907177",
        "inclination": "4.141035601000349",
        "ascending_node_longitude": "205.6756471837579",
        "orbital_period": "1473.395897964885",
        "perihelion_distance": ".9186117749971656",
        "perihelion_argument": "304.5132707969011",
        "aphelion_distance": "4.149474686817188",
        "perihelion_time": "2456354.429847079685",
        "mean_anomaly": "9.546147828116606",
        "mean_motion": ".2443335158576503",
        "equinox": "J2000",
        "orbit_class": {
            "orbit_class_type": "APO",
            "orbit_class_description": "Near-Earth asteroid orbits which cross the Earth’s orbit similar to that of 1862 Apollo",
            "orbit_class_range": "a (semi-major axis) > 1.0 AU; q (perihelion) < 1.017 AU"
        }
    },
    "is_sentry_object": false
}